[
  {
    "COMMENT": "GENERATED VIA SPACETRACK.ORG API",
    "ORIGINATOR": "18 SPCS",
    "NORAD_CAT_ID": "26997",
    "OBJECT_NAME": "JASON",
    "OBJECT_TYPE": "PAYLOAD",
    "CLASSIFICATION_TYPE": "U",
    "INTLDES": "01055A",
    "EPOCH": "2023-05-06 22:12:08",
    "EPOCH_MICROSECONDS": "873280",
    "MEAN_MOTION": "12.8402199",
    "ECCENTRICITY": "0.0006831",
    "INCLINATION": "66.0394",
    "RA_OF_ASC_NODE": "289.3935",
    "ARG_OF_PERICENTER": "264.1232",
    "MEAN_ANOMALY": "262.5117",
    "EPHEMERIS_TYPE": "0",
    "ELEMENT_SET_NO": "999",
    "REV_AT_EPOCH": "285",
    "BSTAR": "0.000072071",
    "MEAN_MOTION_DOT": "-0.00000044",
    "MEAN_MOTION_DDOT": "0",
    "FILE": "3902412",
    "TLE_LINE0": "0 JASON",
    "TLE_LINE1": "1 26997U 01055A   23126.92510270 -.00000044  00000-0  72071-4 0  9994",
    "TLE_LINE2": "2 26997  66.0394 289.3935 0006831 264.1232 262.5117 12.84021990  2855",
    "OBJECT_ID": "2001-055A",
    "OBJECT_NUMBER": "26997",
    "SEMIMAJOR_AXIS": "7703.478",
    "PERIOD": "112.148",
    "APOGEE": "1330.606",
    "PERIGEE": "1320.081",
    "DECAYED": "0"
  },
  {
    "COMMENT": "GENERATED VIA SPACETRACK.ORG API",
    "ORIGINATOR": "18 SPCS",
    "NORAD_CAT_ID": "26997",
    "OBJECT_NAME": "JASON",
    "OBJECT_TYPE": "PAYLOAD",
    "CLASSIFICATION_TYPE": "U",
    "INTLDES": "01055A",
    "EPOCH": "2023-05-07 14:31:18",
    "EPOCH_MICROSECONDS": "645024",
    "MEAN_MOTION": "12.8402201",
    "ECCENTRICITY": "0.0006828",
    "INCLINATION": "66.0394",
    "RA_OF_ASC_NODE": "287.9731",
    "ARG_OF_PERICENTER": "264.1621",
    "MEAN_ANOMALY": "165.3304",
    "EPHEMERIS_TYPE": "0",
    "ELEMENT_SET_NO": "999",
    "REV_AT_EPOCH": "270",
    "BSTAR": "0.000076594",
    "MEAN_MOTION_DOT": "-0.00000043",
    "MEAN_MOTION_DDOT": "0",
    "FILE": "3903215",
    "TLE_LINE0": "0 JASON",
    "TLE_LINE1": "1 26997U 01055A   23127.60507691 -.00000043  00000-0  76594-4 0  9996",
    "TLE_LINE2": "2 26997  66.0394 287.9731 0006828 264.1621 165.3304 12.84022010  2707",
    "OBJECT_ID": "2001-055A",
    "OBJECT_NUMBER": "26997",
    "SEMIMAJOR_AXIS": "7703.478",
    "PERIOD": "112.148",
    "APOGEE": "1330.603",
    "PERIGEE": "1320.083",
    "DECAYED": "0"
  },
  {
    "COMMENT": "GENERATED VIA SPACETRACK.ORG API",
    "ORIGINATOR": "18 SPCS",
    "NORAD_CAT_ID": "26997",
    "OBJECT_NAME": "JASON",
    "OBJECT_TYPE": "PAYLOAD",
    "CLASSIFICATION_TYPE": "U",
    "INTLDES": "01055A",
    "EPOCH": "2023-05-07 20:18:37",
    "EPOCH_MICROSECONDS": "257984",
    "MEAN_MOTION": "12.84022048",
    "ECCENTRICITY": "0.0006827",
    "INCLINATION": "66.0394",
    "RA_OF_ASC_NODE": "287.4692",
    "ARG_OF_PERICENTER": "264.121",
    "MEAN_ANOMALY": "200.1469",
    "EPHEMERIS_TYPE": "0",
    "ELEMENT_SET_NO": "999",
    "REV_AT_EPOCH": "273",
    "BSTAR": "0.00011237",
    "MEAN_MOTION_DOT": "-0.00000035",
    "MEAN_MOTION_DDOT": "0",
    "FILE": "3903413",
    "TLE_LINE0": "0 JASON",
    "TLE_LINE1": "1 26997U 01055A   23127.84626456 -.00000035  00000-0  11237-3 0  9996",
    "TLE_LINE2": "2 26997  66.0394 287.4692 0006827 264.1210 200.1469 12.84022048  2735",
    "OBJECT_ID": "2001-055A",
    "OBJECT_NUMBER": "26997",
    "SEMIMAJOR_AXIS": "7703.478",
    "PERIOD": "112.148",
    "APOGEE": "1330.602",
    "PERIGEE": "1320.084",
    "DECAYED": "0"
  },
  {
    "COMMENT": "GENERATED VIA SPACETRACK.ORG API",
    "ORIGINATOR": "18 SPCS",
    "NORAD_CAT_ID": "26997",
    "OBJECT_NAME": "JASON",
    "OBJECT_TYPE": "PAYLOAD",
    "CLASSIFICATION_TYPE": "U",
    "INTLDES": "01055A",
    "EPOCH": "2023-05-08 20:38:32",
    "EPOCH_MICROSECONDS": "779104",
    "MEAN_MOTION": "12.84022027",
    "ECCENTRICITY": "0.0006825",
    "INCLINATION": "66.0394",
    "RA_OF_ASC_NODE": "285.3513",
    "ARG_OF_PERICENTER": "264.1702",
    "MEAN_ANOMALY": "206.0774",
    "EPHEMERIS_TYPE": "0",
    "ELEMENT_SET_NO": "999",
    "REV_AT_EPOCH": "286",
    "BSTAR": "0.000091521",
    "MEAN_MOTION_DOT": "-0.0000004",
    "MEAN_MOTION_DDOT": "0",
    "FILE": "3904305",
    "TLE_LINE0": "0 JASON",
    "TLE_LINE1": "1 26997U 01055A   23128.86010161 -.00000040  00000-0  91521-4 0  9990",
    "TLE_LINE2": "2 26997  66.0394 285.3513 0006825 264.1702 206.0774 12.84022027  2863",
    "OBJECT_ID": "2001-055A",
    "OBJECT_NUMBER": "26997",
    "SEMIMAJOR_AXIS": "7703.478",
    "PERIOD": "112.148",
    "APOGEE": "1330.601",
    "PERIGEE": "1320.086",
    "DECAYED": "0"
  },
  {
    "COMMENT": "GENERATED VIA SPACETRACK.ORG API",
    "ORIGINATOR": "18 SPCS",
    "NORAD_CAT_ID": "26997",
    "OBJECT_NAME": "JASON",
    "OBJECT_TYPE": "PAYLOAD",
    "CLASSIFICATION_TYPE": "U",
    "INTLDES": "01055A",
    "EPOCH": "2023-05-09 13:18:02",
    "EPOCH_MICROSECONDS": "741760",
    "MEAN_MOTION": "12.84022057",
    "ECCENTRICITY": "0.0006825",
    "INCLINATION": "66.0394",
    "RA_OF_ASC_NODE": "283.9013",
    "ARG_OF_PERICENTER": "264.1668",
    "MEAN_ANOMALY": "174.2133",
    "EPHEMERIS_TYPE": "0",
    "ELEMENT_SET_NO": "999",
    "REV_AT_EPOCH": "295",
    "BSTAR": "0.000093658",
    "MEAN_MOTION_DOT": "-0.00000039",
    "MEAN_MOTION_DDOT": "0",
    "FILE": "3904553",
    "TLE_LINE0": "0 JASON",
    "TLE_LINE1": "1 26997U 01055A   23129.55419840 -.00000039  00000-0  93658-4 0  9995",
    "TLE_LINE2": "2 26997  66.0394 283.9013 0006825 264.1668 174.2133 12.84022057  2951",
    "OBJECT_ID": "2001-055A",
    "OBJECT_NUMBER": "26997",
    "SEMIMAJOR_AXIS": "7703.478",
    "PERIOD": "112.148",
    "APOGEE": "1330.601",
    "PERIGEE": "1320.085",
    "DECAYED": "0"
  },
  {
    "COMMENT": "GENERATED VIA SPACETRACK.ORG API",
    "ORIGINATOR": "18 SPCS",
    "NORAD_CAT_ID": "26997",
    "OBJECT_NAME": "JASON",
    "OBJECT_TYPE": "PAYLOAD",
    "CLASSIFICATION_TYPE": "U",
    "INTLDES": "01055A",
    "EPOCH": "2023-05-10 11:37:58",
    "EPOCH_MICROSECONDS": "20384",
    "MEAN_MOTION": "12.84022068",
    "ECCENTRICITY": "0.0006819",
    "INCLINATION": "66.0395",
    "RA_OF_ASC_NODE": "281.9575",
    "ARG_OF_PERICENTER": "264.241",
    "MEAN_ANOMALY": "154.937",
    "EPHEMERIS_TYPE": "0",
    "ELEMENT_SET_NO": "999",
    "REV_AT_EPOCH": "307",
    "BSTAR": "0.00010777",
    "MEAN_MOTION_DOT": "-0.00000036",
    "MEAN_MOTION_DDOT": "0",
    "FILE": "3904555",
    "TLE_LINE0": "0 JASON",
    "TLE_LINE1": "1 26997U 01055A   23130.48469931 -.00000036  00000-0  10777-3 0  9992",
    "TLE_LINE2": "2 26997  66.0395 281.9575 0006819 264.2410 154.9370 12.84022068  3076",
    "OBJECT_ID": "2001-055A",
    "OBJECT_NUMBER": "26997",
    "SEMIMAJOR_AXIS": "7703.478",
    "PERIOD": "112.148",
    "APOGEE": "1330.596",
    "PERIGEE": "1320.090",
    "DECAYED": "0"
  },
  {
    "COMMENT": "GENERATED VIA SPACETRACK.ORG API",
    "ORIGINATOR": "18 SPCS",
    "NORAD_CAT_ID": "26997",
    "OBJECT_NAME": "JASON",
    "OBJECT_TYPE": "PAYLOAD",
    "CLASSIFICATION_TYPE": "U",
    "INTLDES": "01055A",
    "EPOCH": "2023-05-10 19:19:23",
    "EPOCH_MICROSECONDS": "97216",
    "MEAN_MOTION": "12.8402206",
    "ECCENTRICITY": "0.000682",
    "INCLINATION": "66.0396",
    "RA_OF_ASC_NODE": "281.2881",
    "ARG_OF_PERICENTER": "264.2485",
    "MEAN_ANOMALY": "195.9608",
    "EPHEMERIS_TYPE": "0",
    "ELEMENT_SET_NO": "999",
    "REV_AT_EPOCH": "311",
    "BSTAR": "0.00011702",
    "MEAN_MOTION_DOT": "-0.00000033",
    "MEAN_MOTION_DDOT": "0",
    "FILE": "3904830",
    "TLE_LINE0": "0 JASON",
    "TLE_LINE1": "1 26997U 01055A   23130.80512844 -.00000033  00000-0  11702-3 0  9996",
    "TLE_LINE2": "2 26997  66.0396 281.2881 0006820 264.2485 195.9608 12.84022060  3110",
    "OBJECT_ID": "2001-055A",
    "OBJECT_NUMBER": "26997",
    "SEMIMAJOR_AXIS": "7703.478",
    "PERIOD": "112.148",
    "APOGEE": "1330.597",
    "PERIGEE": "1320.089",
    "DECAYED": "0"
  },
  {
    "COMMENT": "GENERATED VIA SPACETRACK.ORG API",
    "ORIGINATOR": "18 SPCS",
    "NORAD_CAT_ID": "26997",
    "OBJECT_NAME": "JASON",
    "OBJECT_TYPE": "PAYLOAD",
    "CLASSIFICATION_TYPE": "U",
    "INTLDES": "01055A",
    "EPOCH": "2023-05-11 17:17:44",
    "EPOCH_MICROSECONDS": "515968",
    "MEAN_MOTION": "12.8402209",
    "ECCENTRICITY": "0.0006821",
    "INCLINATION": "66.0396",
    "RA_OF_ASC_NODE": "279.3756",
    "ARG_OF_PERICENTER": "264.2579",
    "MEAN_ANOMALY": "107.534",
    "EPHEMERIS_TYPE": "0",
    "ELEMENT_SET_NO": "999",
    "REV_AT_EPOCH": "347",
    "BSTAR": "0.00012836",
    "MEAN_MOTION_DOT": "-0.00000031",
    "MEAN_MOTION_DDOT": "0",
    "FILE": "3905359",
    "TLE_LINE0": "0 JASON",
    "TLE_LINE1": "1 26997U 01055A   23131.72065412 -.00000031  00000-0  12836-3 0  9999",
    "TLE_LINE2": "2 26997  66.0396 279.3756 0006821 264.2579 107.5340 12.84022090  3478",
    "OBJECT_ID": "2001-055A",
    "OBJECT_NUMBER": "26997",
    "SEMIMAJOR_AXIS": "7703.478",
    "PERIOD": "112.148",
    "APOGEE": "1330.598",
    "PERIGEE": "1320.088",
    "DECAYED": "0"
  },
  {
    "COMMENT": "GENERATED VIA SPACETRACK.ORG API",
    "ORIGINATOR": "18 SPCS",
    "NORAD_CAT_ID": "26997",
    "OBJECT_NAME": "JASON",
    "OBJECT_TYPE": "PAYLOAD",
    "CLASSIFICATION_TYPE": "U",
    "INTLDES": "01055A",
    "EPOCH": "2023-05-11 17:17:44",
    "EPOCH_MICROSECONDS": "515968",
    "MEAN_MOTION": "12.8402209",
    "ECCENTRICITY": "0.0006821",
    "INCLINATION": "66.0396",
    "RA_OF_ASC_NODE": "279.3756",
    "ARG_OF_PERICENTER": "264.2579",
    "MEAN_ANOMALY": "107.534",
    "EPHEMERIS_TYPE": "0",
    "ELEMENT_SET_NO": "999",
    "REV_AT_EPOCH": "323",
    "BSTAR": "0.00012836",
    "MEAN_MOTION_DOT": "-0.00000031",
    "MEAN_MOTION_DDOT": "0",
    "FILE": "3905576",
    "TLE_LINE0": "0 JASON",
    "TLE_LINE1": "1 26997U 01055A   23131.72065412 -.00000031  00000-0  12836-3 0  9999",
    "TLE_LINE2": "2 26997  66.0396 279.3756 0006821 264.2579 107.5340 12.84022090  3232",
    "OBJECT_ID": "2001-055A",
    "OBJECT_NUMBER": "26997",
    "SEMIMAJOR_AXIS": "7703.478",
    "PERIOD": "112.148",
    "APOGEE": "1330.598",
    "PERIGEE": "1320.088",
    "DECAYED": "0"
  }
]